{"type": "FeatureCollection", "crs": {"type": "name", "properties": {"name": "EPSG:4326"}}, "features": [{"type": "Feature", "properties": {"unit": "SantaInesPetapa_5km", "label": "Santa Ines Petapa + 5 km", "source": "union of 200 FIM MaximumDepth >= 0.05 m, buffered 5 km"}, "geometry": {"type": "Polygon", "coordinates": [[[-90.53594926939047, 14.429518524099336], [-90.55024498705622, 14.432350050482219], [-90.5601525148032, 14.435954111184843], [-90.56767793146999, 14.440557720653649], [-90.57568185949691, 14.447953269419793], [-90.58192152339251, 14.456838940137029], [-90.58805101087282, 14.471583641073604], [-90.58982482286903, 14.480218089355638], [-90.58982482286903, 14.489064837757839], [-90.58805101087282, 14.497698605528928], [-90.58411852792827, 14.507484729512289], [-90.57672030709156, 14.51800869679128], [-90.56779090517476, 14.527069962288591], [-90.56023096700078, 14.531959800643085], [-90.5518308137749, 14.535327916968486], [-90.54291325867476, 14.537044948026143], [-90.53378412960704, 14.537045714530317], [-90.52300131221473, 14.534731697744395], [-90.51077677090623, 14.52903964383855], [-90.49910295918211, 14.520023799327761], [-90.49333489028902, 14.51321976937111], [-90.4876115239831, 14.503456578200623], [-90.48497218012683, 14.495032938277525], [-90.48403606700566, 14.485228596295016], [-90.48407974100256, 14.469693508730995], [-90.48585355299876, 14.46105865111801], [-90.48933301039092, 14.452924486126436], [-90.49438439958278, 14.445603676555407], [-90.50446948818853, 14.4367518895368], [-90.51677368992038, 14.43111612250456], [-90.52569124502052, 14.429398271268514], [-90.53594926939047, 14.429518524099336]]]}}]}