{"type":"FeatureCollection","features":[{"type":"Feature","properties":{"nombre":"Aldea Santa Inés Petapa","municipio":"Petapa","tipo":"Inundacion","fecha":"2023/06/21","hora":"14:28","personas":495,"familias":138,"damnificados":90,"evento":"Temporada De Lluvias 2023"},"geometry":{"type":"Point","coordinates":[-90.538611,14.485556]}},{"type":"Feature","properties":{"nombre":"Santa Isabel II","municipio":"Villa Nueva","tipo":"Inundacion","fecha":"2023/06/21","hora":"13:12","personas":5,"familias":2,"damnificados":2,"evento":"Temporada De Lluvias 2023"},"geometry":{"type":"Point","coordinates":[-90.603306,14.520417]}},{"type":"Feature","properties":{"nombre":"Ruta Hacia Aldea Santa Ines Petapa","municipio":"Petapa","tipo":"Inundacion","fecha":"2023/06/21","hora":"11:02","personas":50000,"familias":null,"damnificados":0,"evento":"Temporada De Lluvias 2023"},"geometry":{"type":"Point","coordinates":[-90.538781,14.485703]}},{"type":"Feature","properties":{"nombre":"Santa Isabel I","municipio":"Villa Nueva","tipo":"Inundacion","fecha":"2023/06/21","hora":"22:37","personas":20,"familias":4,"damnificados":3,"evento":"Temporada De Lluvias 2023"},"geometry":{"type":"Point","coordinates":[-90.6026,14.520414]}}]}